CCSDS_OMM_VERS = 2.0
CREATION_DATE  = 
ORIGINATOR     = 

OBJECT_NAME    = SOYUZ-MS 28
OBJECT_ID      = 2025-275A
CENTER_NAME    = EARTH
REF_FRAME      = TEME
TIME_SYSTEM    = UTC
MEAN_ELEMENT_THEORY = SGP/SGP4

EPOCH          = 2026-01-09T05:01:51.963744
MEAN_MOTION    = 15.49190279
ECCENTRICITY   = .00076773
INCLINATION    = 51.6334
RA_OF_ASC_NODE = 6.4737
ARG_OF_PERICENTER = 357.8776
MEAN_ANOMALY   = 2.2179

EPHEMERIS_TYPE = 0
CLASSIFICATION_TYPE = U
NORAD_CAT_ID   = 66664
ELEMENT_SET_NO = 999
REV_AT_EPOCH   = 128
BSTAR          = .20045458E-3
MEAN_MOTION_DOT = .10689E-3
MEAN_MOTION_DDOT = 0

CCSDS_OMM_VERS = 2.0
CREATION_DATE  = 
ORIGINATOR     = 

OBJECT_NAME    = 1998-067XS
OBJECT_ID      = 1998-067XS
CENTER_NAME    = EARTH
REF_FRAME      = TEME
TIME_SYSTEM    = UTC
MEAN_ELEMENT_THEORY = SGP/SGP4

EPOCH          = 2026-01-09T05:38:51.287712
MEAN_MOTION    = 15.52216568
ECCENTRICITY   = .0002347
INCLINATION    = 51.6323
RA_OF_ASC_NODE = 5.8969
ARG_OF_PERICENTER = 347.7092
MEAN_ANOMALY   = 12.3840

EPHEMERIS_TYPE = 0
CLASSIFICATION_TYPE = U
NORAD_CAT_ID   = 66906
ELEMENT_SET_NO = 999
REV_AT_EPOCH   = 588
BSTAR          = .5166963E-3
MEAN_MOTION_DOT = .31574E-3
MEAN_MOTION_DDOT = 0

CCSDS_OMM_VERS = 2.0
CREATION_DATE  = 
ORIGINATOR     = 

OBJECT_NAME    = 1998-067XT
OBJECT_ID      = 1998-067XT
CENTER_NAME    = EARTH
REF_FRAME      = TEME
TIME_SYSTEM    = UTC
MEAN_ELEMENT_THEORY = SGP/SGP4

EPOCH          = 2026-01-09T06:16:47.882784
MEAN_MOTION    = 15.55609460
ECCENTRICITY   = .00037257
INCLINATION    = 51.6317
RA_OF_ASC_NODE = 5.3229
ARG_OF_PERICENTER = 32.7085
MEAN_ANOMALY   = 327.4137

EPHEMERIS_TYPE = 0
CLASSIFICATION_TYPE = U
NORAD_CAT_ID   = 66907
ELEMENT_SET_NO = 999
REV_AT_EPOCH   = 589
BSTAR          = .12623304E-2
MEAN_MOTION_DOT = .88747E-3
MEAN_MOTION_DDOT = 0

CCSDS_OMM_VERS = 2.0
CREATION_DATE  = 
ORIGINATOR     = 

OBJECT_NAME    = 1998-067XU
OBJECT_ID      = 1998-067XU
CENTER_NAME    = EARTH
REF_FRAME      = TEME
TIME_SYSTEM    = UTC
MEAN_ELEMENT_THEORY = SGP/SGP4

EPOCH          = 2026-01-09T06:15:19.032480
MEAN_MOTION    = 15.55589733
ECCENTRICITY   = .00036757
INCLINATION    = 51.6310
RA_OF_ASC_NODE = 5.3150
ARG_OF_PERICENTER = 28.0086
MEAN_ANOMALY   = 332.1103

EPHEMERIS_TYPE = 0
CLASSIFICATION_TYPE = U
NORAD_CAT_ID   = 66908
ELEMENT_SET_NO = 999
REV_AT_EPOCH   = 589
BSTAR          = .11979453E-2
MEAN_MOTION_DOT = .84084E-3
MEAN_MOTION_DDOT = 0

CCSDS_OMM_VERS = 2.0
CREATION_DATE  = 
ORIGINATOR     = 

OBJECT_NAME    = SILVERSAT
OBJECT_ID      = 1998-067XV
CENTER_NAME    = EARTH
REF_FRAME      = TEME
TIME_SYSTEM    = UTC
MEAN_ELEMENT_THEORY = SGP/SGP4

EPOCH          = 2026-01-09T04:34:03.488160
MEAN_MOTION    = 15.56179247
ECCENTRICITY   = .00039232
INCLINATION    = 51.6316
RA_OF_ASC_NODE = 5.5959
ARG_OF_PERICENTER = 37.4652
MEAN_ANOMALY   = 322.6612

EPHEMERIS_TYPE = 0
CLASSIFICATION_TYPE = U
NORAD_CAT_ID   = 66909
ELEMENT_SET_NO = 999
REV_AT_EPOCH   = 588
BSTAR          = .10106622E-2
MEAN_MOTION_DOT = .72326E-3
MEAN_MOTION_DDOT = 0

CCSDS_OMM_VERS = 2.0
CREATION_DATE  = 
ORIGINATOR     = 

OBJECT_NAME    = 1998-067XW
OBJECT_ID      = 1998-067XW
CENTER_NAME    = EARTH
REF_FRAME      = TEME
TIME_SYSTEM    = UTC
MEAN_ELEMENT_THEORY = SGP/SGP4

EPOCH          = 2026-01-09T06:06:55.902816
MEAN_MOTION    = 15.55902122
ECCENTRICITY   = .00028346
INCLINATION    = 51.6299
RA_OF_ASC_NODE = 5.2749
ARG_OF_PERICENTER = 12.0829
MEAN_ANOMALY   = 348.0230

EPHEMERIS_TYPE = 0
CLASSIFICATION_TYPE = U
NORAD_CAT_ID   = 66910
ELEMENT_SET_NO = 999
REV_AT_EPOCH   = 589
BSTAR          = .13062581E-2
MEAN_MOTION_DOT = .92894E-3
MEAN_MOTION_DDOT = 0

CCSDS_OMM_VERS = 2.0
CREATION_DATE  = 
ORIGINATOR     = 

OBJECT_NAME    = 1998-067XX
OBJECT_ID      = 1998-067XX
CENTER_NAME    = EARTH
REF_FRAME      = TEME
TIME_SYSTEM    = UTC
MEAN_ELEMENT_THEORY = SGP/SGP4

EPOCH          = 2026-01-09T04:18:08.165088
MEAN_MOTION    = 15.56871346
ECCENTRICITY   = .00028998
INCLINATION    = 51.6306
RA_OF_ASC_NODE = 5.5213
ARG_OF_PERICENTER = 28.0910
MEAN_ANOMALY   = 332.0238

EPHEMERIS_TYPE = 0
CLASSIFICATION_TYPE = U
NORAD_CAT_ID   = 66911
ELEMENT_SET_NO = 999
REV_AT_EPOCH   = 587
BSTAR          = .10958275E-2
MEAN_MOTION_DOT = .80589E-3
MEAN_MOTION_DDOT = 0

CCSDS_OMM_VERS = 2.0
CREATION_DATE  = 
ORIGINATOR     = 

OBJECT_NAME    = 1998-067XY
OBJECT_ID      = 1998-067XY
CENTER_NAME    = EARTH
REF_FRAME      = TEME
TIME_SYSTEM    = UTC
MEAN_ELEMENT_THEORY = SGP/SGP4

EPOCH          = 2026-01-09T06:36:46.687104
MEAN_MOTION    = 15.54359427
ECCENTRICITY   = .00035692
INCLINATION    = 51.6313
RA_OF_ASC_NODE = 5.4149
ARG_OF_PERICENTER = 17.1401
MEAN_ANOMALY   = 342.9710

EPHEMERIS_TYPE = 0
CLASSIFICATION_TYPE = U
NORAD_CAT_ID   = 66912
ELEMENT_SET_NO = 999
REV_AT_EPOCH   = 588
BSTAR          = .97380165E-3
MEAN_MOTION_DOT = .65072E-3
MEAN_MOTION_DDOT = 0

